SOYUZ-MS 28             
1 66664U 25275A   26009.20962921  .00010689  00000+0  20045-3 0  9994
2 66664  51.6334   6.4737 0007677 357.8776   2.2179 15.49190279  1288
1998-067XS              
1 66906U 98067XS  26009.23531583  .00031574  00000+0  51670-3 0  9995
2 66906  51.6323   5.8969 0002347 347.7092  12.3840 15.52216568  5884
1998-067XT              
1 66907U 98067XT  26009.26166531  .00088747  00000+0  12623-2 0  9994
2 66907  51.6317   5.3229 0003725  32.7085 327.4137 15.55609460  5896
1998-067XU              
1 66908U 98067XU  26009.26063695  .00084084  00000+0  11979-2 0  9995
2 66908  51.6310   5.3150 0003675  28.0086 332.1103 15.55589733  5892
SILVERSAT               
1 66909U 98067XV  26009.19031815  .00072326  00000+0  10107-2 0  9995
2 66909  51.6316   5.5959 0003923  37.4652 322.6612 15.56179247  5881
1998-067XW              
1 66910U 98067XW  26009.25481369  .00092894  00000+0  13063-2 0  9993
2 66910  51.6299   5.2749 0002834  12.0829 348.0230 15.55902122  5896
1998-067XX              
1 66911U 98067XX  26009.17926117  .00080589  00000+0  10958-2 0  9998
2 66911  51.6306   5.5213 0002899  28.0910 332.0238 15.56871346  5877
1998-067XY              
1 66912U 98067XY  26009.27554036  .00065072  00000+0  97380-3 0  9992
2 66912  51.6313   5.4149 0003569  17.1401 342.9710 15.54359427  5887
